NORAD_CAT_ID,OBJECT_NAME,OBJECT_TYPE,EPOCH,MEAN_MOTION,ECCENTRICITY,INCLINATION,RA_OF_ASC_NODE,ARG_OF_PERICENTER,MEAN_ANOMALY,BSTAR,MEAN_MOTION_DOT,MEAN_MOTION_DDOT,TLE_LINE0,TLE_LINE1,TLE_LINE2,SEMIMAJOR_AXIS,PERIOD,APOGEE,PERIGEE,DECAYED
53723.0,STARLINK-4705,PAYLOAD,2023-05-02 17:26:21,15.08855574,0.0001085,53.2151,251.5975,89.076,271.0356,0.00043156,6.59e-05,0.0,0 STARLINK-4705,1 53723U 22107Z   23122.72664137  .00006590  00000-0  43156-3 0  9990,2 53723  53.2151 251.5975 0001085  89.0760 271.0356 15.08855574 37256,6917.833,95.437,540.448,538.947,0.0
53723.0,STARLINK-4705,PAYLOAD,2023-05-03 01:23:17,15.0884312,8.8e-05,53.2142,250.1121,98.7574,261.3518,0.00016881,2.4e-05,0.0,0 STARLINK-4705,1 53723U 22107Z   23123.05784292  .00002400  00000-0  16881-3 0  9993,2 53723  53.2142 250.1121 0000880  98.7574 261.3518 15.08843120 36701,6917.871,95.437,540.345,539.127,0.0
53723.0,STARLINK-4705,PAYLOAD,2023-05-03 12:31:00,15.08834925,0.0001066,53.2155,248.0298,94.4304,265.681,-1.5485e-05,-5.34e-06,0.0,0 STARLINK-4705,1 53723U 22107Z   23123.52152985 -.00000534  00000-0 -15485-4 0  9991,2 53723  53.2155 248.0298 0001066  94.4304 265.6810 15.08834925 36779,6917.896,95.438,540.498,539.023,0.0
53723.0,STARLINK-4705,PAYLOAD,2023-05-03 14:06:23,15.08835395,0.0001072,53.2154,247.7326,94.7704,265.3411,-8.1235e-06,-4.17e-06,0.0,0 STARLINK-4705,1 53723U 22107Z   23123.58776983 -.00000417  00000-0 -81235-5 0  9994,2 53723  53.2154 247.7326 0001072  94.7704 265.3411 15.08835395 37384,6917.894,95.438,540.501,539.018,0.0
53723.0,STARLINK-4705,PAYLOAD,2023-05-03 15:41:46,15.08838432,0.0001041,53.2154,247.4356,92.1676,267.9435,3.4974e-05,2.69e-06,0.0,0 STARLINK-4705,1 53723U 22107Z   23123.65400847  .00000269  00000-0  34974-4 0  9995,2 53723  53.2154 247.4356 0001041  92.1676 267.9435 15.08838432 37390,6917.885,95.438,540.47,539.03,0.0
53723.0,STARLINK-4705,PAYLOAD,2023-05-04 13:57:10,15.08842864,9.69e-05,53.2149,243.2726,94.136,265.9743,0.00014152,1.965e-05,0.0,0 STARLINK-4705,1 53723U 22107Z   23124.58136709  .00001965  00000-0  14152-3 0  9990,2 53723  53.2149 243.2726 0000969  94.1360 265.9743 15.08842864 36932,6917.872,95.437,540.407,539.066,0.0
53723.0,STARLINK-4705,PAYLOAD,2023-05-04 15:32:33,15.08845426,9.71e-05,53.215,242.9751,95.0669,265.0434,0.00019347,2.793e-05,0.0,0 STARLINK-4705,1 53723U 22107Z   23124.64760613  .00002793  00000-0  19347-3 0  9995,2 53723  53.2150 242.9751 0000971  95.0669 265.0434 15.08845426 37546,6917.864,95.437,540.401,539.057,0.0
53723.0,STARLINK-4705,PAYLOAD,2023-05-05 07:26:25,15.08832138,0.0001044,53.215,240.0017,88.6592,271.4519,6.2278e-05,7.03e-06,0.0,0 STARLINK-4705,1 53723U 22107Z   23125.31001398  .00000703  00000-0  62278-4 0  9999,2 53723  53.2150 240.0017 0001044  88.6592 271.4519 15.08832138 37041,6917.904,95.438,540.492,539.047,0.0
53723.0,STARLINK-4705,PAYLOAD,2023-05-05 13:47:58,15.08831497,9.59e-05,53.2149,238.8128,82.5409,277.5692,0.0001557,2.191e-05,0.0,0 STARLINK-4705,1 53723U 22107Z   23125.57497789  .00002191  00000-0  15570-3 0  9995,2 53723  53.2149 238.8128 0000959  82.5409 277.5692 15.08831497 37687,6917.906,95.438,540.435,539.108,0.0
53723.0,STARLINK-4705,PAYLOAD,2023-05-06 13:38:44,15.08848494,0.0001171,53.2151,234.3513,88.091,272.0217,0.00023156,3.4e-05,0.0,0 STARLINK-4705,1 53723U 22107Z   23126.56857041  .00003400  00000-0  23156-3 0  9999,2 53723  53.2151 234.3513 0001171  88.0910 272.0217 15.08848494 37839,6917.854,95.437,540.53,538.909,0.0
53723.0,STARLINK-4705,PAYLOAD,2023-05-07 00:46:26,15.08854762,0.0001172,53.215,232.2704,85.3692,274.7434,0.00025215,3.729e-05,0.0,0 STARLINK-4705,1 53723U 22107Z   23127.03224562  .00003729  00000-0  25215-3 0  9990,2 53723  53.2150 232.2704 0001172  85.3692 274.7434 15.08854762 37302,6917.835,95.437,540.511,538.889,0.0
53723.0,STARLINK-4705,PAYLOAD,2023-05-07 11:54:08,15.08843883,0.0001251,53.2146,230.1886,103.0449,257.0682,0.00017082,2.432e-05,0.0,0 STARLINK-4705,1 53723U 22107Z   23127.49592985  .00002432  00000-0  17082-3 0  9990,2 53723  53.2146 230.1886 0001251 103.0449 257.0682 15.08843883 37379,6917.869,95.437,540.599,538.868,0.0
53723.0,STARLINK-4705,PAYLOAD,2023-05-08 13:20:18,15.08841148,6.43e-05,53.2151,225.4332,87.8613,272.2453,7.0054e-05,8.28e-06,0.0,0 STARLINK-4705,1 53723U 22107Z   23128.55577106  .00000828  00000-0  70054-4 0  9992,2 53723  53.2151 225.4332 0000643  87.8613 272.2453 15.08841148 37539,6917.877,95.437,540.187,539.297,0.0
53723.0,STARLINK-4705,PAYLOAD,2023-05-09 11:35:42,15.08836054,9.16e-05,53.2158,221.2683,100.7683,259.3413,6.9144e-05,8.13e-06,0.0,0 STARLINK-4705,1 53723U 22107Z   23129.48313476  .00000813  00000-0  69144-4 0  9995,2 53723  53.2158 221.2683 0000916 100.7683 259.3413 15.08836054 38278,6917.892,95.438,540.391,539.124,0.0
53723.0,STARLINK-4705,PAYLOAD,2023-05-10 11:26:29,15.08849123,8.37e-05,53.2172,216.8096,107.1597,252.9487,-3.4206e-05,-8.32e-06,0.0,0 STARLINK-4705,1 53723U 22107Z   23130.47673433 -.00000832  00000-0 -34206-4 0  9992,2 53723  53.2172 216.8096 0000837 107.1597 252.9487 15.08849123 38427,6917.853,95.437,540.297,539.138,0.0
53723.0,STARLINK-4705,PAYLOAD,2023-05-11 11:17:17,15.08835592,9.21e-05,53.2172,212.3489,85.7027,274.407,0.00010254,1.344e-05,0.0,0 STARLINK-4705,1 53723U 22107Z   23131.47034109  .00001344  00000-0  10254-3 0  9997,2 53723  53.2172 212.3489 0000921  85.7027 274.4070 15.08835592 38575,6917.894,95.438,540.396,539.122,0.0
53723.0,STARLINK-4705,PAYLOAD,2023-05-11 12:52:40,15.08835559,9.15e-05,53.2171,212.0515,84.5067,275.603,9.8113e-05,1.274e-05,0.0,0 STARLINK-4705,1 53723U 22107Z   23131.53658139  .00001274  00000-0  98113-4 0  9992,2 53723  53.2171 212.0515 0000915  84.5067 275.6030 15.08835559 38588,6917.894,95.438,540.392,539.126,0.0
53723.0,STARLINK-4705,PAYLOAD,2023-05-12 00:00:22,15.08835685,9.59e-05,53.2168,209.9695,77.7383,282.3716,7.0061e-05,8.27e-06,0.0,0 STARLINK-4705,1 53723U 22107Z   23132.00026341  .00000827  00000-0  70061-4 0  9994,2 53723  53.2168 209.9695 0000959  77.7383 282.3716 15.08835685 38655,6917.894,95.438,540.422,539.095,0.0
53723.0,STARLINK-4705,PAYLOAD,2023-05-13 10:58:50,15.08849103,9.95e-05,53.2163,203.4272,74.9415,285.1687,0.00015743,2.219e-05,0.0,0 STARLINK-4705,1 53723U 22107Z   23133.45753173  .00002219  00000-0  15743-3 0  9996,2 53723  53.2163 203.4272 0000995  74.9415 285.1687 15.08849103 38271,6917.853,95.437,540.406,539.029,0.0
53723.0,STARLINK-4705,PAYLOAD,2023-05-13 12:34:13,15.08848901,0.0001009,53.2162,203.1296,75.3084,284.802,0.00019075,2.75e-05,0.0,0 STARLINK-4705,1 53723U 22107Z   23133.52377060  .00002750  00000-0  19075-3 0  9993,2 53723  53.2162 203.1296 0001009  75.3084 284.8020 15.08848901 38886,6917.853,95.437,540.416,539.02,0.0
53723.0,STARLINK-4705,PAYLOAD,2023-05-13 22:06:33,15.08842054,9.75e-05,53.2153,201.3438,76.17,283.9401,0.00012408,1.688e-05,0.0,0 STARLINK-4705,1 53723U 22107Z   23133.92121563  .00001688  00000-0  12408-3 0  9994,2 53723  53.2153 201.3438 0000975  76.1700 283.9401 15.08842054 38346,6917.874,95.437,540.414,539.065,0.0
53723.0,STARLINK-4705,PAYLOAD,2023-05-14 12:25:01,15.08837998,0.000115,53.2165,198.664,104.9843,255.1276,-4.7837e-05,-1.049e-05,0.0,0 STARLINK-4705,1 53723U 22107Z   23134.51738198 -.00001049  00000-0 -47837-4 0  9996,2 53723  53.2165 198.6640 0001150 104.9843 255.1276 15.08837998 38438,6917.887,95.438,540.547,538.956,0.0
53723.0,STARLINK-4705,PAYLOAD,2023-05-14 14:00:24,15.08838147,0.0001199,53.2165,198.367,117.8192,242.2922,-5.5627e-05,-1.173e-05,0.0,0 STARLINK-4705,1 53723U 22107Z   23134.58362158 -.00001173  00000-0 -55627-4 0  9996,2 53723  53.2165 198.3670 0001199 117.8192 242.2922 15.08838147 39041,6917.886,95.438,540.581,538.922,0.0
53723.0,STARLINK-4705,PAYLOAD,2023-05-15 10:40:25,15.08845602,0.0001083,53.2158,194.505,97.1713,262.9403,-4.2968e-05,-9.72e-06,0.0,0 STARLINK-4705,1 53723U 22107Z   23135.44473803 -.00000972  00000-0 -42968-4 0  9992,2 53723  53.2158 194.5050 0001083  97.1713 262.9403 15.08845602 38578,6917.863,95.437,540.477,538.979,0.0
53723.0,STARLINK-4705,PAYLOAD,2023-05-16 10:31:12,15.08835545,0.0001143,53.2155,190.0438,86.0052,274.107,6.4699e-05,7.42e-06,0.0,0 STARLINK-4705,1 53723U 22107Z   23136.43834377  .00000742  00000-0  64699-4 0  9997,2 53723  53.2155 190.0438 0001143  86.0052 274.1070 15.08835545 38723,6917.894,95.438,540.55,538.968,0.0
53723.0,STARLINK-4705,PAYLOAD,2023-05-16 20:03:31,15.08836003,0.0001148,53.2154,188.2597,85.2209,274.8915,5.8376e-05,6.41e-06,0.0,0 STARLINK-4705,1 53723U 22107Z   23136.83578434  .00000641  00000-0  58376-4 0  9993,2 53723  53.2154 188.2597 0001148  85.2209 274.8915 15.08836003 39385,6917.893,95.438,540.552,538.963,0.0
53723.0,STARLINK-4705,PAYLOAD,2023-05-17 19:54:18,15.08836701,0.000115,53.2157,183.7994,83.0462,277.0661,2.9653e-05,1.84e-06,0.0,0 STARLINK-4705,1 53723U 22107Z   23137.82938635  .00000184  00000-0  29653-4 0  9994,2 53723  53.2157 183.7994 0001150  83.0462 277.0661 15.08836701 39534,6917.89,95.438,540.551,538.96,0.0
53723.0,STARLINK-4705,PAYLOAD,2023-05-17 23:05:05,15.08836359,0.0001109,53.2156,183.2055,92.5963,267.5156,3.0113e-05,1.91e-06,0.0,0 STARLINK-4705,1 53723U 22107Z   23137.96186683  .00000191  00000-0  30113-4 0  9998,2 53723  53.2156 183.2055 0001109  92.5963 267.5156 15.08836359 38958,6917.892,95.438,540.524,538.989,0.0
53723.0,STARLINK-4705,PAYLOAD,2023-05-18 11:48:10,15.08836545,0.0001102,53.2156,180.8265,92.3597,267.7521,2.2788e-05,7.5e-07,0.0,0 STARLINK-4705,1 53723U 22107Z   23138.49178779  .00000075  00000-0  22788-4 0  9994,2 53723  53.2156 180.8265 0001102  92.3597 267.7521 15.08836545 39639,6917.891,95.438,540.518,538.994,0.0
53723.0,STARLINK-4705,PAYLOAD,2023-05-18 19:45:06,15.08837428,0.0001085,53.2157,179.3403,94.2795,265.8321,4.0678e-05,3.6e-06,0.0,0 STARLINK-4705,1 53723U 22107Z   23138.82298709  .00000360  00000-0  40678-4 0  9992,2 53723  53.2157 179.3403 0001085  94.2795 265.8321 15.08837428 39681,6917.888,95.438,540.504,539.003,0.0
